[Satellite]
VERSION=1.1
NAME=CZ-3B R/B
NICKNAME=CZ-3B R/B
TLE1=1 44545U 19061D   19279.23084730  .00020915  65498-7  60151-3 0  9996
TLE2=2 44545  55.0292 258.7389 5824225 174.9158 195.7639  4.39094244   584
STATUS=0
